団体コード,団体名,name,設置場所_名称_カナ,設置場所_住所,設置場所_電話番号,lat,lon,設置場所_詳細,情報源（ソース）,利用可能時間,利用可能日,開始時間,終了時間,日時備考,小児用パッドの有無,AED画像_画像,AED画像_ライセンス,AED画像_画像テキスト,列,施設名称,住所,種別
112186,深谷市,深谷市立八基小学校,ﾌｶﾔｼﾘﾂﾔﾂﾓﾄｼｮｳｶﾞｯｺｳ,深谷市下手計1300,048-587-2250,36.233862,139.2620139,１階廊下保健室前壁面の棚,,8:10～16:40,月～金曜日,8:10:00,16:40:00,,無し,,,,,,,
112186,深谷市,深谷市立豊里中学校,ﾌｶﾔｼﾘﾂﾄﾖｻﾄﾁｭｳｶﾞｯｺｳ,深谷市下手計525,048-587-2150,36.2307322,139.2766464,１階職員室入り口壁側,,8:10～16:40,月～金曜日,8:10:00,16:40:00,,無し,,,,,,,
112186,深谷市,渋沢栄一記念館・八基公民館,ｼﾌﾞｻﾜｴｲｲﾁｷﾈﾝｶﾝ・ﾔﾂﾓﾄｺｳﾐﾝｶﾝ,深谷市下手計1204,048-598-7757,36.2342287,139.2638804,１階事務室窓口側,,9:00～22:00,日～土曜日,9:00:00,22:00:00,年末年始は休館,有り,https://fukaya.geocloud.jp/webgis/Link/org/12-19/0/ATTACH/67db24d8-507f-4358-82a6-c86075481668.jpg,CC-BY,エントランス側から右側事務室方向に向かい撮った写真,,,,
112186,深谷市,緒方医院,,深谷市血洗島182-1,,36.2339258,139.2607639,,,,,,,,,,,,,,,
112186,深谷市,ＪＡふかや　八基支店,,深谷市血洗島187,,36.23357589,139.2606584,,,,,,,,,,,,,,,
112186,深谷市,特別養護老人ホーム　藤の木荘,,深谷市藤野木117,,36.2151655,139.323926,,,,,,,,,,,,,,,
112186,深谷市,深谷市立明戸小学校,ﾌｶﾔｼﾘﾂｱｹﾄｼｮｳｶﾞｯｺｳ,深谷市蓮沼413,048-571-0868,36.21908731,139.3206496,職員室南側窓際,,8:10～16:40,月～金曜日,8:10:00,16:40:00,,無し,,,,,,,
112186,深谷市,深谷市明戸公民館,ﾌｶﾔｼｱｹﾄｺｳﾐﾝｶﾝ,深谷市蓮沼256,048-571-0872,36.21617639,139.3175876,事務室,,9:00～22:00,日～土曜日,9:00:00,22:00:00,年末年始は休館,有り,https://fukaya.geocloud.jp/webgis/Link/org/12-19/0/ATTACH/bdbb5122-ff52-41c2-b245-569364e0302c.JPG,CC-BY,ＡＥＤ設置場所を明戸公民館１階事務室の窓口から撮った写真,,,,
112186,深谷市,ＪＡふかや　明戸支店,,深谷市蓮沼290-1,,36.21632361,139.318482,,,,,,,,,,,,,,,
112186,深谷市,深谷市立明戸中学校,ﾌｶﾔｼﾘﾂｱｹﾄﾁｭｳｶﾞｯｺｳ,深谷市新井18,048-571-0869,36.219487,139.311127,保健室前廊下,,8:10～16:40,月～金曜日,8:10:00,16:40:00,,無し,,,,,,,
112186,深谷市,深谷市老人福祉センター福寿荘,ﾌｶﾔｼﾛｳｼﾞﾝﾌｸｼｾﾝﾀｰﾌｸｼﾞｭｿｳ,深谷市沼尻482-1,048-573-2940,36.223092,139.305483,１階事務室,,8：30～17：00,日時備考以外の日,8:30:00,17:00:00,月・金・祝日の翌日・年末年始は休館,無し,https://fukaya.geocloud.jp/webgis/Link/org/12-19/0/ATTACH/f9fede00-4fdd-4f06-a10f-c9beaf30d80c.JPG,CC-BY,AED設置場所を１階事務室から撮った写真,,,,
112186,深谷市,老人保健施設　ＦＯＭＡなごみ,,深谷市新戒413-1,,36.22879111,139.2927231,,,,,,,,,,,,,,,
112186,深谷市,深谷市立豊里小学校,ﾌｶﾔｼﾘﾂﾄﾖｻﾄｼｮｳｶﾞｯｺｳ,深谷市新戒635,048-587-2002,36.23405161,139.2875318,１階　職員玄関　入り口近くの壁,,8:15～16:15,月～金曜日,8:15:00,16:15:00,,無し,,,,,,,
112186,深谷市,深谷市豊里公民館,ﾌｶﾔｼﾄﾖｻﾄｺｳﾐﾝｶﾝ,深谷市新戒639-1,048-587-2111,36.2339822,139.2862457,事務所出入り口横　,,9:00～22:00,日～土曜日,9:00:00,22:00:00,年末年始は休館,有り,https://fukaya.geocloud.jp/webgis/Link/org/12-19/0/ATTACH/89fd9674-f034-4e65-aaa3-c7bfd4a26c41.jpg,CC-BY,公民館に入るとすぐ右側に事務室があり、事務室の窓口に設置,,,,
112186,深谷市,ＪＡふかや　豊里支店,,深谷市新戒410-3,,36.22988,139.2933118,,,,,,,,,,,,,,,
112186,深谷市,深谷大里看護専門学校,,深谷市新戒749-1,,36.2276995,139.291726,,,,,,,,,,,,,,,
112186,深谷市,正田眼科,,深谷市稲荷町１丁目8-33,,36.19127831,139.2876665,,,,,,,,,,,,,,,
112186,深谷市,白倉医院,,深谷市稲荷町３丁目3-1,,36.19724669,139.2898605,,,,,,,,,,,,,,,
112186,深谷市,深谷市消防本部　深谷消防署,ﾌｶﾔｼｼｮｳﾎﾞｳﾎﾝﾌﾞ ﾌｶﾔｼｮｳﾎﾞｳｼｮ,深谷市上敷免858,048-571-0916,36.21203961,139.2848159,深谷消防署　受付,,0:00～24:00,常時使用可能,0:00:00,0:00:00,,有り,https://fukaya.geocloud.jp/webgis/Link/org/12-19/0/ATTACH/c705e229-b347-4903-af94-c4e828037b86.jpeg,CC-BY,ＡＥＤ設置場所を深谷消防署１階受付前の通路から撮った写真,,,,
112186,深谷市,深谷市浄化センター,ﾌｶﾔｼｼﾞｮｳｶｾﾝﾀｰ,深谷市上敷免2,048-577-7542,36.22129761,139.3009113,2階ホール南側大会議室壁面,,8:30-17:15※管理業者のみ常駐のため、使用時は必ず左欄記載電話番号（下水道工務課維持係）にご連絡ください。,,8:30:00,17:15:00,土・日・祝・年末年始を除く,有り,https://fukaya.geocloud.jp/webgis/Link/org/12-19/0/ATTACH/6eace7b2-0fd0-4d90-95a2-640b639319e8.JPG,CC-BY,浄化センター２階ホールからAEDが設置されている大会議室側壁面を撮った写真,,,,
112186,深谷市,ＪＡふかや　深谷農機センター,,深谷市上敷免990-1,,36.21350631,139.2898961,,,,,,,,,,,,,,,
112186,深谷市,深谷市立幡羅中学校,ﾌｶﾔｼﾘﾂﾊﾀﾗﾁｭｳｶﾞｯｺｳ,深谷市常盤町38,048-571-0229,36.19535269,139.3008457,職員室内　東入口,,8:10～16:40,月～金曜日,8:10:00,16:40:00,,無し,,,,,,,
112186,深谷市,ＪＡアグリホールかごはら,,深谷市幡羅町１丁目8-24,,36.17921311,139.3212082,,,,,,,,,,,,,,,
112186,深谷市,埼玉県立深谷第一高等学校,,深谷市常盤町21-1,,36.19547211,139.2971849,,,,,,,,,,,,,,,
112186,深谷市,深谷市立常盤小学校,ﾌｶﾔｼﾘﾂﾄｷﾜｼｮｳｶﾞｯｺｳ,深谷市常盤町58-2,048-571-4923,36.19489756,139.2993395,保健室,,8:15～16:45,月～金曜日,8:15:00,16:45:00,,無し,,,,,,,
112186,深谷市,深谷市立常盤幼稚園,ﾌｶﾔｼﾘﾂﾄｷﾜﾖｳﾁｴﾝ,深谷市常盤町58-2,048-573-2558,36.19538,139.29836,職員室東側の棚の中,,8:15～17:00,月～金曜日,8:15:00,17:00:00,,有り,,,,,,,
112186,深谷市,埼玉県立深谷商業高等学校,,深谷市原郷80,,36.19746619,139.2915075,,,,,,,,,,,,,,,
112186,深谷市,深谷肛門科,,深谷市原郷449-2,,36.20018539,139.2942767,,,,,,,,,,,,,,,
112186,深谷市,深谷中央病院,,深谷市原郷500,,36.20436289,139.2952903,,,,,,,,,,,,,,,
112186,深谷市,岩崎医院,,深谷市東方3688-5,,36.17580789,139.323036,,,,,,,,,,,,,,,
112186,深谷市,深谷市幡羅公民館,ﾌｶﾔｼﾊﾀﾗｺｳﾐﾝｶﾝ,深谷市東方1370,048-575-1411,36.19637531,139.3143972,事務室,,9:00～22:00,日～土曜日,9:00:00,22:00:00,年末年始は休館,有り,https://fukaya.geocloud.jp/webgis/Link/org/12-19/0/ATTACH/362c57a8-fa02-4171-8ca8-9779e6f9047a.jpg,CC-BY,AED設置場所を幡羅公民館１階事務室の入口から撮った写真,,,,
112186,深谷市,深谷整形デイサービスセンター　野の花,,深谷市東方1302-1,,36.20240819,139.3181356,,,,,,,,,,,,,,,
112186,深谷市,グループホーム野の花,,深谷市東方1275-1,,36.20265262,139.3187272,,,,,,,,,,,,,,,
112186,深谷市,深谷自動車教習所,,深谷市東方4343,,36.17797689,139.3132312,,,,,,,,,,,,,,,
112186,深谷市,ＪＡふかや　幡羅支店,,深谷市東方2118-1,,36.19210522,139.312257,,,,,,,,,,,,,,,
112186,深谷市,ＪＡふかや　グル米ハウス,,深谷市東方2118-1,,36.19207561,139.3116309,,,,,,,,,,,,,,,
112186,深谷市,内田ハートクリニック,,深谷市東方町２丁目15-6,,36.18902039,139.3148696,,,,,,,,,,,,,,,
112186,深谷市,東光保育園,,深谷市東方町３丁目13-3,,36.18839705,139.3181927,,,,,,,,,,,,,,,
112186,深谷市,深谷市立幡羅小学校,ﾌｶﾔｼﾘﾂﾊﾀﾗｼｮｳｶﾞｯｺｳ,深谷市東方町３丁目25-1,048-571-0517,36.18671286,139.3175436,西校舎1階来賓玄関の棚の上,,8:15～16:45,月～金曜日,8:15:00,16:45:00,,無し,,,,,,,
112186,深谷市,深谷市立幡羅幼稚園,ﾌｶﾔｼﾘﾂﾊﾀﾗﾖｳﾁｴﾝ,深谷市東方町３丁目25-1,048-571-2787,36.18649,139.31805,職員室の東側書庫内,,8:15～17:00,月～金曜日,8:15:00,17:00:00,,有り,,,,,,,
112186,深谷市,桃園第二保育園,,深谷市上柴町東３丁目21-4,,36.1777685,139.3115341,,,,,,,,,,,,,,,
112186,深谷市,深谷市立上柴東小学校,ﾌｶﾔｼﾘﾂｶﾐｼﾊﾞﾋｶﾞｼｼｮｳｶﾞｯｺｳ,深谷市上柴町東５丁目9-1,048-573-7435,36.17812931,139.3014128,校舎１階　保健室南窓際,,8:10～16:40,月～金曜日,8:10:00,16:40:00,,無し,,,,,,,
112186,深谷市,昭和電機（株）,,深谷市上柴町東７丁目4-1,,36.17461019,139.3018712,,,,,,,,,,,,,,,
112186,深谷市,栃の木保育園,,深谷市上柴町東３丁目18-3,,36.1763102,139.3075456,,,,,,,,,,,,,,,
112186,深谷市,スーパービバホーム深谷店,,深谷市上柴町東２丁目29-8,,36.17968511,139.3132395,,,,,,,,,,,,,,,
112186,深谷市,深谷スポーツヴィレッジ,,深谷市上柴町東３丁目13-16,,36.17699339,139.3041765,,,,,,,,,,,,,,,
112186,深谷市,協栄スイミングクラブ深谷,,深谷市上柴町東１丁目7-4,,36.18359289,139.3077732,,,,,,,,,,,,,,,
112186,深谷市,スポーツクラブジョイフィット深谷,,深谷市上柴町東３丁目12-2,,36.17806,139.305954,,,,,,,,,,,,,,,
112186,深谷市,四元医院,,深谷市上柴町西１丁目4-1,,36.18708669,139.2958325,,,,,,,,,,,,,,,
112186,深谷市,神足眼科医院,,深谷市上柴町西３丁目19-13,,36.18318161,139.300771,,,,,,,,,,,,,,,
112186,深谷市,深谷赤十字病院,,深谷市上柴町西５丁目8-1,,36.18358969,139.2940966,,,,,,,,,,,,,,,
112186,深谷市,深谷市立上柴西小学校,ﾌｶﾔｼﾘﾂｶﾐｼﾊﾞﾆｼｼｮｳｶﾞｯｺｳ,深谷市上柴町西５丁目11-1,048-571-7580,36.181468,139.292672,１階保健室　北側　棚の中,,8:15～16:45,月～金曜日,8:15:00,16:45:00,,無し,,,,,,,
112186,深谷市,深谷市立上柴中学校,ﾌｶﾔｼﾘﾂｶﾐｼﾊﾞﾁｭｳｶﾞｯｺｳ,深谷市上柴町西２丁目23-1,048-573-7438,36.183929,139.297752,職員室　入口付近,,8:10～16:40,月～金曜日,8:10:00,16:40:00,,無し,,,,,,,
112186,深谷市,深谷市上柴公民館,ﾌｶﾔｼｶﾐｼﾊﾞｺｳﾐﾝｶﾝ,深谷市上柴町西４丁目2-14上柴地区複合施設３階「キララ上柴」内,048-572-9001,36.181537,139.298624,上柴地区複合施設３階キララ上柴、上柴公民館事務所内、印刷室横のキャビネット上段,,9:00～22:00,日～土曜日,9:00:00,22:00:00,年末年始は休館,有り,https://fukaya.geocloud.jp/webgis/Link/org/12-19/0/ATTACH/5633b2cb-fdde-47c9-aabd-3c88a6a9ed89.JPG,CC-BY,AED設置場所を上柴公民館受付窓口から撮った写真,,,,
112186,深谷市,イトーヨーカ堂　深谷店,,深谷市上柴町西４丁目2-14,,36.181537,139.298624,,,,,,,,,,,,,,,
112186,深谷市,深谷市立上柴西幼稚園,ﾌｶﾔｼﾘﾂｶﾐｼﾊﾞﾆｼﾖｳﾁｴﾝ,深谷市上柴町西５丁目18-5,048-573-5240,36.181459,139.291514,1階職員室南側の窓際,,8:15～17:00,月～金曜日,8:15:00,17:00:00,,有り,,,,,,,
112186,深谷市,深谷市総合体育館（深谷ビッグタートル）,ﾌｶﾔｼｿｳｺﾞｳﾀｲｲｸｶﾝ（ﾌｶﾔﾋﾞｯｸﾞﾀｰﾄﾙ）,深谷市上野台2568,048-572-3000,36.17651231,139.2712678,受付窓口（事務所内）,,8:30～22:00※日曜日は8:30～21:00,休館日以外,8:30:00,22:00:00,休館日（不定期（年3回程度）/年末年始）,有り,https://fukaya.geocloud.jp/webgis/Link/org/12-19/0/ATTACH/c3dd39e3-cded-4305-b68d-1b2372e8bb7a.JPG,CC-BY,AED設置場所（受付窓口）を深谷市総合体育館 1階事務所内から撮った写真,,,,
112186,深谷市,深谷産婦人科医院,,深谷市上野台3027-2,,36.18737789,139.2740757,,,,,,,,,,,,,,,
112186,深谷市,桜ヶ丘病院,,深谷市上野台477,,36.18685861,139.283439,,,,,,,,,,,,,,,
112186,深谷市,正智深谷高等学校,,深谷市上野台369,,36.1903582,139.2777698,,,,,,,,,,,,,,,
112186,深谷市,仙元山保育園,,深谷市上野台3094-2,,36.179487,139.2731898,,,,,,,,,,,,,,,
112186,深谷市,ドコモショップ深谷店,,深谷市上野台2867-1　サン・ライフモール内,,36.18383111,139.2794143,,,,,,,,,,,,,,,
112186,深谷市,深谷市立桜ケ丘小学校,ﾌｶﾔｼﾘﾂｻｸﾗｶﾞｵｶｼｮｳｶﾞｯｺｳ,深谷市上野台508,048-571-0967,36.18631453,139.27907,第１校舎　職員・来賓玄関　西側壁面,,8:15:～16:45,月～金曜日,8:15:00,16:45:00,,無し,,,,,,,
112186,深谷市,深谷市老人福祉センター仙元荘,ﾌｶﾔｼﾛｳｼﾞﾝﾌｸｼｾﾝﾀｰｾﾝｹﾞﾝｿｳ,深谷市上野台2552-1,048-572-0416,36.176454,139.2760592,１階事務室,,8：30～17：00,日時備考以外の日,8:30:00,17:00:00,月・木・祝日の翌日・年末年始は休館,無し,https://fukaya.geocloud.jp/webgis/Link/org/12-19/0/ATTACH/1794a9c8-bdf6-4312-bb30-e84828523475.JPG,CC-BY,AED設置場所を１階事務室から撮った写真,,,,
112186,深谷市,東京電力（株）熊谷支社深谷営業センター,,深谷市上野台2923-2,,36.18460589,139.2764673,,,,,,,,,,,,,,,
112186,深谷市,正智深谷高等学校,,深谷市上野台369,,36.1903582,139.2777698,,,,,,,,,,,,,,,
112186,深谷市,桜ヶ丘保育園,,深谷市上野台2891-1,,36.18454211,139.2784866,,,,,,,,,,,,,,,
112186,深谷市,深谷市立桜ケ丘幼稚園,ﾌｶﾔｼﾘﾂｻｸﾗｶﾞｵｶﾖｳﾁｴﾝ,深谷市上野台508,048-571-2788,36.185925,139.278791,職員室玄関側,,8:30～15:00,月～金曜日,8:30:00,15:00:00,,有り,,,,,,,
112186,深谷市,埼玉県立深谷高等学校,,深谷市宿根315,,36.202468,139.266384,,,,,,,,,,,,,,,
112186,深谷市,深谷市南公民館,ﾌｶﾔｼﾐﾅﾐｺｳﾐﾝｶﾝ,深谷市宿根645-1,048-575-5550,36.189794,139.263254,1階事務室入口入ったところ,,9:00～22:00,日～土曜日,9:00:00,22:00:00,年末年始は休館,有り,https://fukaya.geocloud.jp/webgis/Link/org/12-19/0/ATTACH/a305cc1c-9250-47d1-b576-da3d995cbe8c.JPG,CC-BY,事務室入り口に向かって撮った写真。事務室入ってすぐ左、入口と複写機の間,,,,
112186,深谷市,深谷整形外科医院,,深谷市宿根245-1,,36.196974,139.266181,,,,,,,,,,,,,,,
112186,深谷市,深谷整形通所リハビリセンター,,深谷市宿根245-1,,36.196974,139.266181,,,,,,,,,,,,,,,
112186,深谷市,東京成徳大学深谷高等学校,,深谷市宿根559,,36.192547,139.260474,,,,,,,,,,,,,,,
112186,深谷市,皆光園,,深谷市人見1998,,36.1618667,139.2582889,,,,,,,,,,,,,,,
112186,深谷市,深谷市立藤沢小学校,ﾌｶﾔｼﾘﾂﾌｼﾞｻﾜｼｮｳｶﾞｯｺｳ,深谷市人見1626,048-571-2107,36.167697,139.267768,職員室　東側中央列の養護教諭の机上,,8:10～16:40,月～金曜日,8:10:00,16:40:00,月～金曜日,無し,,,,,,,
112186,深谷市,深谷市立藤沢中学校,ﾌｶﾔｼﾘﾂﾌｼﾞｻﾜﾁｭｳｶﾞｯｺｳ,深谷市人見1973,048-571-0742,36.163131,139.265991,保健室（北側戸棚),,8:10～16:40,月～金曜日,8:10:00,16:40:00,,無し,,,,,,,
112186,深谷市,深谷市藤沢公民館,ﾌｶﾔｼﾌｼﾞｻﾜｺｳﾐﾝｶﾝ,深谷市人見1967-1,048-571-0345,36.164266,139.266285,事務室,,9:00～22:00,日～土曜日,9:00:00,22:00:00,年末年始は休館,有り,https://fukaya.geocloud.jp/webgis/Link/org/12-19/0/ATTACH/494dee2f-5bff-4f44-93d9-7404b087262b.JPG,CC-BY,ＡＥＤ設置場所を公民館正面玄関の入口から撮ったもの,,,,
112186,深谷市,ＪＡふかや　藤沢支店,,深谷市人見1921-1,,36.1652135,139.2640105,,,,,,,,,,,,,,,
112186,深谷市,ＪＡふかや　南部営農経済センター,,深谷市人見1935-1,,36.1667522,139.2677629,,,,,,,,,,,,,,,
112186,深谷市,藤沢保育園,,深谷市人見1963-3,,36.16415531,139.2652105,,,,,,,,,,,,,,,
112186,深谷市,深谷市立藤沢幼稚園,ﾌｶﾔｼﾘﾂﾌｼﾞｻﾜﾖｳﾁｴﾝ,深谷市人見1625,048-571-5600,36.168391,139.267177,玄関ホール用具入れの中の棚,,8:30～17:00,月～金曜日,8:30:00,17:00:00,,有り,,,,,,,
112186,深谷市,（株）クリーンテックサーマル,,深谷市折之口1873-2,,36.164633,139.293045,,,,,,,,,,,,,,,
112186,深谷市,さくらんぼ保育園,,深谷市大谷2185-3,,36.16563261,139.2433812,,,,,,,,,,,,,,,
112186,深谷市,第２さくら保育園,,深谷市櫛引80-1,,36.16539369,139.2418174,,,,,,,,,,,,,,,
112186,深谷市,ＪＡふかや　櫛挽支店,,深谷市櫛引66,,36.1647825,139.2360011,,,,,,,,,,,,,,,
112186,深谷市,ＪＡふかや　櫛挽直売所,,深谷市櫛引37-13,,36.15649181,139.2361935,,,,,,,,,,,,,,,
112186,深谷市,ふかや緑の王国,ﾌｶﾔﾐﾄﾞﾘﾉｵｳｺｸ,深谷市櫛引24,048-551-5551,36.15791661,139.2354657,管理事務所,,8:30～17:15（10～3月）8:30～18:00（4～9月）,毎日,8:30:00,,年末年始は休園時期により利用可能時間は異なります。,有り,https://fukaya.geocloud.jp/webgis/Link/org/12-19/0/ATTACH/4f9070f5-2441-45b5-8e11-36e5bcb03b37.jpg,CC-BY,ＡＥＤ設置場所を管理事務所内から撮った写真,,,,
112186,深谷市,深谷グリーンパーク「パティオ」,ﾌｶﾔｸﾞﾘｰﾝﾊﾟｰｸ｢ﾊﾟﾃｨｵ｣,深谷市樫合763,048-574-7764,36.17846739,139.250444,①一階受付カウンター,,10:00～21:00,火曜日以外,10:00:00,21:00:00,火曜日及び２月は休館,無し,https://fukaya.geocloud.jp/webgis/Link/org/12-19/0/ATTACH/cf07632a-79eb-4445-856c-7bfffbeecedc.JPG,CC-BY,①パティオロビー券売機側から撮影。,,,,
112186,深谷市,深谷グリーンパーク「パティオ」,ﾌｶﾔｸﾞﾘｰﾝﾊﾟｰｸ｢ﾊﾟﾃｨｵ｣,深谷市樫合763,048-574-7764,36.17846739,139.250444,②一階事務室内,,10:00～21:00,火曜日以外,10:00:00,21:00:00,火曜日及び２月は休館,無し,https://fukaya.geocloud.jp/webgis/Link/org/12-19/0/ATTACH/35f92f56-0835-4314-94c3-4197d26da756.JPG,CC-BY,②事務所内にて撮影。利用者スペースからは見えない。,,,,
112186,深谷市,新井整形外科,,深谷市萱場316-1,,36.1907468,139.2680009,,,,,,,,,,,,,,,
112186,深谷市,深谷市立南中学校,ﾌｶﾔｼﾘﾂﾐﾅﾐﾁｭｳｶﾞｯｺｳ,深谷市萱場320,048-572-8373,36.18896639,139.2663233,１階　来賓玄関　事務室受付窓口の下,,8:30～16:30,月～金曜日,8:30:00,16:30:00,,無し,,,,,,,
112186,深谷市,深谷市立深谷中学校,ﾌｶﾔｼﾘﾂﾌｶﾔﾁｭｳｶﾞｯｺｳ,深谷市田谷45-2,048-571-0451,36.20754539,139.2794414,職員玄関,,8:10～16:40,月～金曜日,8:10:00,16:40:00,,無し,,,,,,,
112186,深谷市,高木医院,,深谷市仲町17-22,,36.198594,139.28453,,,,,,,,,,,,,,,
112186,深谷市,深谷市立深谷小学校,ﾌｶﾔｼﾘﾂﾌｶﾔｼｮｳｶﾞｯｺｳ,深谷市仲町19-1,048-571-0329,36.199902,139.283536,職員室の窓際,,8:15～16:45,月～金曜日,8:15:00,16:45:00,,無し,,,,,,,
112186,深谷市,深谷市深谷公民館,ﾌｶﾔｼﾌｶﾔｺｳﾐﾝｶﾝ,深谷市仲町20-2,048-571-0506,36.20060181,139.284208,１階事務室入口正面,,9:00～22:00,日～土曜日,9:00:00,22:00:00,年末年始は休館,有り,https://fukaya.geocloud.jp/webgis/Link/org/12-19/0/ATTACH/4eded8d8-7f8b-41d4-81ff-822b79dba5f2.JPG,CC-BY,公民館の出入口正面にある事務室の入口から撮った写真,,,,
112186,深谷市,深谷市立図書館,ﾌｶﾔｼﾘﾂﾄｼｮｶﾝ,深谷市仲町19-3,048-571-8210,36.199877,139.285205,カウンター内,,9:00～19:00,火～日曜日,9:00:00,19:00:00,月曜休館,有り,https://fukaya.geocloud.jp/webgis/Link/org/12-19/0/ATTACH/df36c7ba-a04e-4517-a0ac-a5f5806bed1b.JPG,CC-BY,館内に入ってカウンター内を撮影した写真,,,,
112186,深谷市,ＪＡふかや　深谷支店,,深谷市仲町16-13,,36.198744,139.283453,,,,,,,,,,,,,,,
112186,深谷市,深谷市立深谷幼稚園,ﾌｶﾔｼﾘﾂﾌｶﾔﾖｳﾁｴﾝ,深谷市仲町19-2,048-571-0948,36.20003,139.284433,職員室南側の窓際,,8:15～17:00,月～金曜日,8:15:00,17:00:00,,有り,,,,,,,
112186,深谷市,深谷市保健センター,ﾌｶﾔｼﾎｹﾝｾﾝﾀｰ,深谷市本住町17-1,048-575-1101,36.199594,139.287325,１階正面玄関入り、右側の壁,,8:30～17:15,月～金曜日,8:30:00,17:15:00,土・日・祝・年末年始は休館,有り,https://fukaya.geocloud.jp/webgis/Link/org/12-19/0/ATTACH/f1d207bd-01b8-4a8a-9ad6-4c1734054029.JPG,CC-BY,ＡＥＤ設置場所を保健センターホールの廊下から撮った写真,,,,
112186,深谷市,佐々木病院,,深谷市西島町２丁目16-1,,36.193505,139.282806,,,,,,,,,,,,,,,
112186,深谷市,皆成病院,,深谷市西島町３丁目11-1,,36.19295,139.279156,,,,,,,,,,,,,,,
112186,深谷市,カーブス深谷,,深谷市深谷町7-40,,36.19641311,139.2770308,,,,,,,,,,,,,,,
112186,深谷市,深谷市立深谷西小学校,ﾌｶﾔｼﾘﾂﾌｶﾔﾆｼｼｮｳｶﾞｯｺｳ,深谷市栄町14-18,048-571-0250,36.1977157,139.2733532,受付窓口横の専用ボックス,,8:10～16:40,月～金曜日,8:10:00,16:40:00,,無し,,,,,,,
112186,深谷市,深谷市立深谷西幼稚園,ﾌｶﾔｼﾘﾂﾌｶﾔﾆｼﾖｳﾁｴﾝ,深谷市栄町14-19,048-571-2786,36.19715181,139.273256,職員室東側の窓際,,8:30～14:00,月～金曜日,8:30:00,14:00:00,預かり日は15:00まで,有り,,,,,,,
112186,深谷市,茂木医院,,深谷市西大沼330-1,,36.19781289,139.2725893,,,,,,,,,,,,,,,
112186,深谷市,深谷市立大寄小学校,ﾌｶﾔｼﾘﾂｵｵﾖﾘｼｮｳｶﾞｯｺｳ,深谷市内ケ島660,048-571-0774,36.21706661,139.2730109,本校舎　一階　正面玄関　受付窓口脇,,8:10～16:40,月～金曜日,8:10:00,16:40:00,,無し,,,,,,,
112186,深谷市,ＪＡふかや　本店,,深谷市内ケ島728-1,,36.2166222,139.2740331,,,,,,,,,,,,,,,
112186,深谷市,ＪＡふかや　大寄支店,,深谷市内ケ島728-3,,36.21658888,139.2743553,,,,,,,,,,,,,,,
112186,深谷市,桃園保育園,,深谷市戸森226-1,,36.209242,139.278833,,,,,,,,,,,,,,,
112186,深谷市,深谷警察署,,深谷市戸森88-1,,36.207859,139.278222,,,,,,,,,,,,,,,
112186,深谷市,深谷市大寄公民館,ﾌｶﾔｼｵｵﾖﾘｺｳﾐﾝｶﾝ,深谷市起会84-1,048-571-0341,36.222758,139.275208,事務室,,9:00～22:00　※17:15以降係員が巡回時には事務室が施錠されている場合があります。,日～土曜日,9:00:00,22:00:00,年末年始は休館,有り,https://fukaya.geocloud.jp/webgis/Link/org/12-19/0/ATTACH/25b6a2e4-88c9-4ec3-a3be-8c838341980d.jpg,CC-BY,事務室のドアより２ｍ奥、右側のキャビネットの上に設置しています。,,,,
112186,深谷市,深谷市役所本庁舎,ﾌｶﾔｼﾔｸｼｮﾎﾝﾁｮｳｼｬ,深谷市仲町11-1,048-571-1211,36.197519,139.281555,1階市民ホール総合案内北側の壁,,8:30～22:00,年末年始は閉館,有り,,,,,,,
112186,深谷市,埼玉県立深谷高等学校,,深谷市宿根315,,36.202468,139.266384,,,,,,,,,,,,,,,
112186,深谷市,金子医院,,深谷市岡2738,,36.211161,139.240041,,,,,,,,,,,,,,,
112186,深谷市,深谷市立岡部西小学校,ﾌｶﾔｼﾘﾂｵｶﾍﾞﾆｼｼｮｳｶﾞｯｺｳ,深谷市岡2949,048-585-4892,36.213097,139.234711,保健室南側窓際スチールロッカーの上,,8:15～16:00,月～金曜日,8:15:00,16:00:00,,無し,,,,,,,
112186,深谷市,道の駅おかべ,ﾐﾁﾉｴｷｵｶﾍﾞ,深谷市岡688-1,048-585-5001,36.218505,139.241424,道の駅おかべ物産館入り口宝くじ売り場横,,7:00～20:00,年間通して,7:00:00,20:00:00,年に1回（不定休）,無し,https://fukaya.geocloud.jp/webgis/Link/org/12-19/0/ATTACH/610e2a9f-a6c5-4b3b-bf73-9449b29b59e9.jpg,CC-BY,ＡＥＤの設置場所を物産館入口から中に向かって撮った写真,,,,
112186,深谷市,つばさ保育園,,深谷市岡2955-1,,36.21131938,139.2342275,,,,,,,,,,,,,,,
112186,深谷市,水越医院,,深谷市普済寺1116-11,,36.208961,139.24736,,,,,,,,,,,,,,,
112186,深谷市,深谷市立岡部小学校,ﾌｶﾔｼﾘﾂｵｶﾍﾞｼｮｳｶﾞｯｺｳ,深谷市普済寺1305,048-585-2023,36.206612,139.247099,１階保健室　東側の窓際,,8:10～16:40,月～金曜日,8:10:00,16:40:00,,無し,,,,,,,
112186,深谷市,埼玉工業大学,,深谷市普済寺1690,,36.195271,139.238141,,,,,,,,,,,,,,,
112186,深谷市,ＪＡ埼玉岡部　本店,,深谷市普済寺1210-1,,36.20352839,139.2469046,,,,,,,,,,,,,,,
112186,深谷市,ふきのとう保育園,,深谷市針ケ谷41-3,,36.19080439,139.2192735,,,,,,,,,,,,,,,
112186,深谷市,深谷市立本郷小学校,ﾌｶﾔｼﾘﾂﾎﾝｺﾞｳｼｮｳｶﾞｯｺｳ,深谷市針ケ谷506,048-585-4191,36.17574211,139.2258678,１階　保健室冷蔵庫の上,,8:15～16:45,月～金曜日,8:15:00,16:45:00,,無し,,,,,,,
112186,深谷市,ＪＡふかや　本郷支店,,深谷市針ケ谷340-1,,36.18176919,139.2202153,,,,,,,,,,,,,,,
112186,深谷市,ＪＡふかや　本郷給油所,,深谷市針ケ谷337,,36.18135811,139.2198904,,,,,,,,,,,,,,,
112186,深谷市,関越自動車道寄居ＰＡ（上り線）,,深谷市本郷3064,,36.1749467,139.1938361,,,,,,,,,,,,,,,
112186,深谷市,あゆみ幼児園,,深谷市今泉46-1,,36.1770582,139.2120583,,,,,,,,,,,,,,,
112186,深谷市,ケアハウス　エンゼルの丘,,深谷市今泉625,,36.1846462,139.2094974,,,,,,,,,,,,,,,
112186,深谷市,深谷市立岡部中学校,ﾌｶﾔｼﾘﾂｵｶﾍﾞﾁｭｳｶﾞｯｺｳ,深谷市山河1214,048-585-2623,36.20027319,139.236097,職員室,,8:10～16:40,月～金曜日,8:10:00,16:40:00,,無し,,,,,,,
112186,深谷市,深谷市岡部公民館,ﾌｶﾔｼｵｶﾍﾞｺｳﾐﾝｶﾝ,深谷市山河1324-1,048-585-4974,36.20102311,139.2313861,事務室,,9:00～22:00,日～土曜日,9:00:00,22:00:00,年末年始は休館,有り,https://fukaya.geocloud.jp/webgis/Link/org/12-19/0/ATTACH/d2ef222c-655f-4968-9c32-315691eb7a38.JPG,CC-BY,ＡＥＤ設置場所を岡部公民館正面玄関ロビーから撮った写真,,,,
112186,深谷市,深丘園,ｼﾝｷｭｳｴﾝ,深谷市山河397-1,048-585-2900,36.19206281,139.222798,１階ホール東側の窓際,,9:00～17:00,日時備考以外の日,9:00:00,17:00:00,1月1日、2日及び友引は休館,有り,https://fukaya.geocloud.jp/webgis/Link/org/12-19/0/ATTACH/808f2d50-a03f-46e8-bf26-26c4ff5e6b25.JPG,CC-BY,ＡＥＤ設置場所を深丘園入口東側、事務室前廊下から撮った写真,,,,
112186,深谷市,深谷市老人福祉センター岡部荘,ﾌｶﾔｼﾛｳｼﾞﾝﾌｸｼｾﾝﾀｰｵｶﾍﾞｿｳ,深谷市山河1324-1,048-585-1987,36.20073089,139.2315305,１階事務室,,8:30～17:00,日時備考以外の日,8:30:00,17:00:00,月・木・祝日の翌日・年末年始は休館,無し,https://fukaya.geocloud.jp/webgis/Link/org/12-19/0/ATTACH/16fa28fe-36fe-4f33-94f2-046fecb5be9c.JPG,CC-BY,AED設置場所を１階事務室から撮った写真,,,,
112186,深谷市,みらい幼児園おかべ,ﾐﾗｲﾖｳｼﾞｴﾝｵｶﾍﾞ,深谷市山河1382,048-585-2429,36.20297316,139.2300821,職員室内金庫の上,,7:30～18:30,月～土曜日,7:30:00,18:30:00,日・祝・年末年始は休園,有り,https://fukaya.geocloud.jp/webgis/Link/org/12-19/0/ATTACH/f286fa32-7216-43f8-a6bc-c67bd0b4c74a.JPG,CC-BY,ＡＥＤ設置場所を職員室入り口から撮った写真,,,,
112186,深谷市,深谷市立おかべ幼稚園,ﾌｶﾔｼﾘﾂｵｶﾍﾞﾖｳﾁｴﾝ,深谷市山河1382,048-585-4190,36.20312011,139.2306528,１階小ホール西側,,8:30～17:00,月～金曜日,8:30:00,17:00:00,,有り,,,,,,,
112186,深谷市,柳田医院,,深谷市榛沢新田858-2,,36.208872,139.2159014,,,,,,,,,,,,,,,
112186,深谷市,ＪＡ榛沢　本店,,深谷市榛沢新田580-1,,36.2100413,139.215182,,,,,,,,,,,,,,,
112186,深谷市,深谷市立榛沢小学校,ﾌｶﾔｼﾘﾂﾊﾝｻﾞﾜｼｮｳｶﾞｯｺｳ,深谷市榛沢802-1,048-585-2715,36.21252989,139.2139905,１階職員室内西側戸棚中央,,8:15～16:45,月～金曜日,8:15:00,16:45:00,,無し,,,,,,,
112186,深谷市,東京電力（株）熊谷支社新岡部変電所,,深谷市榛沢1465,,36.20199923,139.2281402,,,,,,,,,,,,,,,
112186,深谷市,深谷市立川本北小学校,ﾌｶﾔｼﾘﾂｶﾜﾓﾄｷﾀｼｮｳｶﾞｯｺｳ,深谷市長在家143,048-583-2007,36.14493819,139.2862714,職員室内西側の書庫入り口,,8:15～16:45,月～金曜日,8:15:00,16:45:00,,無し,,,,,,,
112186,深谷市,深谷市川本公民館,ﾌｶﾔｼｶﾜﾓﾄｺｳﾐﾝｶﾝ,深谷市菅沼1009,048-583-3234,36.137328,139.2852637,事務室,,9:00～22:00,日～土曜日,9:00:00,22:00:00,年末年始は休館,有り,https://fukaya.geocloud.jp/webgis/Link/org/12-19/0/ATTACH/f21b87a0-0d7d-467e-9fcf-121ca89655d2.JPG,CC-BY,事務室内、窓口に向かって左手レジスターの奥に設置,,,,
112186,深谷市,深谷市高齢者福祉青少年活動複合施設もくせい館,ﾌｶﾔｼｺｳﾚｲｼｬﾌｸｼｾｲｼｮｳﾈﾝｶﾂﾄﾞｳﾌｸｺﾞｳｼｾﾂﾓｸｾｲｶﾝ,深谷市菅沼401,048-583-7733,36.1395055,139.2864079,１階事務室,,8：30～17：00,日時備考以外の日,8:30:00,17:00:00,火・水、年末年始は休館,無し,https://fukaya.geocloud.jp/webgis/Link/org/12-19/0/ATTACH/d62e3441-7412-423d-a7ef-27c3bda6b07f.JPG,CC-BY,AED設置場所を１階事務室から撮った写真,,,,
112186,深谷市,深谷市立川本南小学校,ﾌｶﾔｼﾘﾂｶﾜﾓﾄﾐﾅﾐｼｮｳｶﾞｯｺｳ,深谷市本田4888,048-583-3019,36.121392,139.28602,職員室　南側出入り口付近,,8:10～16:40,月～金曜日,8:10:00,16:40:00,,無し,,,,,,,
112186,深谷市,埼玉県立深谷はばたき特別支援学校,,深谷市本田50,,36.13191769,139.2809005,,,,,,,,,,,,,,,
112186,深谷市,ＪＡふかや　川本支店,,深谷市本田339-1,,36.12696,139.284412,,,,,,,,,,,,,,,
112186,深谷市,埼玉県農林公園,,深谷市本田5768-1,,36.112332,139.28824,,,,,,,,,,,,,,,
112186,深谷市,ＪＡふかや　川本給油所,,深谷市本田339-3,,36.126571,139.284362,,,,,,,,,,,,,,,
112186,深谷市,川本サングリーンパーク,ｶﾜﾓﾄｻﾝｸﾞﾘｰﾝﾊﾟｰｸ,深谷市本田5990,048-583-5611,36.110299,139.284288,川本サングリーンパーク内事務室,,9:00～17:00,水～月曜日,9:00:00,17:00:00,毎週火曜は休園日,有り,https://fukaya.geocloud.jp/webgis/Link/org/12-19/0/ATTACH/1724feed-2f74-467a-b3d1-8e3e63251daf.jpg,CC-BY,ＡＥＤ設置場所をサングリーンパーク事務所入り口から中に向かって撮った写真,,,,
112186,深谷市,清水クリニック,,深谷市畠山1709,,36.12746,139.2742625,,,,,,,,,,,,,,,
112186,深谷市,深谷市立川本中学校,ﾌｶﾔｼﾘﾂｶﾜﾓﾄﾁｭｳｶﾞｯｺｳ,深谷市田中530,048-583-2014,36.13686969,139.2783754,１階保健室廊下側,,8:15～16:45,月～金曜日,8:15:00,16:45:00,,無し,,,,,,,
112186,深谷市,（株）パールトータルサービス本社事務所,,深谷市田中2065,,36.14511319,139.2641982,,,,,,,,,,,,,,,
112186,深谷市,ＪＡふかや　武川支店,,深谷市田中603-1,,36.14049711,139.2776197,,,,,,,,,,,,,,,
112186,深谷市,深谷市川本総合支所,ﾌｶﾔｼｶﾜﾓﾄｿｳｺﾞｳｼｼｮ,深谷市田中197,048-583-2781,36.13910281,139.2816083,1階事務室内,,8:30～17:15,月～金曜日,8:30:00,17:15:00,土・日曜、休日、年末年始は不可,有り,https://fukaya.geocloud.jp/webgis/Link/org/12-19/0/ATTACH/cf4a15b8-9856-4e1a-a9d8-53888254dec0.JPG,CC-BY,1階事務室内を撮影,,,,
112186,深谷市,谷口医院,,深谷市武蔵野1706-1,,36.13695761,139.2216934,,,,,,,,,,,,,,,
112186,深谷市,デイサービスセンター花園,,深谷市永田1447-2,,36.13518939,139.2573163,,,,,,,,,,,,,,,
112186,深谷市,深谷市老人福祉センター花園荘,ﾌｶﾔｼﾛｳｼﾞﾝﾌｸｼｾﾝﾀｰﾊﾅｿﾞﾉｿｳ,深谷市荒川866,048-584-6110,36.12389619,139.2405514,１階事務室,,8：30～17：15,日時備考以外の日,8:30:00,17:15:00,月・金・祝日の翌日・年末年始は休館,無し,https://fukaya.geocloud.jp/webgis/Link/org/12-19/0/ATTACH/3f50d654-4cda-44d0-98fb-47df638dd75d.JPG,CC-BY,AED設置場所を１階事務室から撮った写真,,,,
112186,深谷市,花園耳鼻咽喉科医院,,深谷市小前田2060-1,,36.132984,139.231576,,,,,,,,,,,,,,,
112186,深谷市,深谷市立花園小学校,ﾌｶﾔｼﾘﾂﾊﾅｿﾞﾉｼｮｳｶﾞｯｺｳ,深谷市小前田1463-1,048-584-0478,36.127937,139.229927,本校舎１階　保健室廊下側　,,8:15～16:45,月～金曜日,8:15:00,16:45:00,,無し,,,,,,,
112186,深谷市,深谷市立花園中学校,ﾌｶﾔｼﾘﾂﾊﾅｿﾞﾉﾁｭｳｶﾞｯｺｳ,深谷市小前田1980,048-584-0634,36.134805,139.227365,職員室内　東側の廊下側,,8:15～16:45,月～金曜日,8:15:00,16:45:00,,無し,,,,,,,
112186,深谷市,深谷市花園公民館,ﾌｶﾔｼﾊﾅｿﾞﾉｺｳﾐﾝｶﾝ,深谷市小前田2345-1,048-584-2184,36.133107,139.226188,１階事務室,,9:00～22:00,日～土曜日,9:00:00,22:00:00,年末年始は休館,有り,https://fukaya.geocloud.jp/webgis/Link/org/12-19/0/ATTACH/06a637d4-eb86-4ea3-ae86-38e3856e0a92.JPG,CC-BY,ＡＥＤ設置場所を事務所窓口外側から撮った写真,,,,
112186,深谷市,深谷市花園文化会館アドニス,ﾌｶﾔｼﾊﾅｿﾞﾉﾌﾞﾝｶｶｲｶﾝｱﾄﾞﾆｽ,深谷市小前田2966,048-584-6125,36.137322,139.230357,事務所内キャビネット,,9:00～21:30,12月29日～1月3日を除く全日,9:00:00,21:30:00,臨時休館等もありえます。,有り,https://fukaya.geocloud.jp/webgis/Link/org/12-19/0/ATTACH/8275e006-917e-4b33-ab88-ed2bbe6918e4.jpg,CC-BY,ＡＥＤ設置場所をアドニス事務所入口側から撮影した写真,,,,
112186,深谷市,ＪＡ花園　本店,,深谷市小前田1169,,36.12812,139.222619,,,,,,,,,,,,,,,
112186,深谷市,花園総合支所,ﾊﾅｿﾞﾉｿｳｺﾞｳｼｼｮ,深谷市小前田2345-1,048‐584‐1121,36.133107,139.226188,1階事務室内の南側の窓際,,8:30～17:15,月～金曜日,8:30:00,17:15:00,土・日・祝・年末年始は休館,有り,https://fukaya.geocloud.jp/webgis/Link/org/12-19/0/ATTACH/54b83c11-95ef-48e2-a366-80f3a476cb46.JPG,CC-BY,AED設置場所を１階事務室から撮った写真,,,,
112186,深谷市,埼玉県社会福祉事業団花園,,深谷市小前田2691,,36.137533,139.225482,,,,,,,,,,,,,,,
112186,深谷市,深谷市立花園幼稚園,ﾌｶﾔｼﾘﾂﾊﾅｿﾞﾉﾖｳﾁｴﾝ,深谷市小前田1503,048-584-1779,36.127068,139.229135,職員室の薬品棚の中,,8:15～17:00,月～金曜日,8:15:00,17:00:00,,有り,,,,,,,
112186,深谷市,東都医療大学,,深谷市上柴町西４丁目2-11,,36.180237,139.298905,,,,,,,,,,,,,,,
112186,深谷市,サンラインスポーツクラブ,,深谷市原郷2132-1,,36.193892,139.295935,,,,,,,,,,,,,,,
112186,深谷市,ボートピア,,深谷市沓掛86,,36.222268,139.225461,,,,,,,,,,,,,,,
112186,深谷市,深谷市社会福祉協議会,ﾌｶﾔｼｼｬｶｲﾌｸｼｷｮｳｷﾞｶｲ,深谷市本住町12-8,048-573-6563,36.197066,139.285833,１階ホール自動ドア入って左側,,9：00～22：00,毎日,9:00:00,22:00:00,12月29日～1月3日は休館,有り,https://fukaya.geocloud.jp/webgis/Link/org/12-19/0/ATTACH/f2c3b5c5-c587-4bb5-b314-39dadb32757f.jpg,CC-BY,ＡＥＤ設置場所を自動ドアを入った状態から撮った写真,,,,
112186,深谷市,あさみ医院,,深谷市黒田340-1,,36.132337,139.253831,,,,,,,,,,,,,,,
112186,深谷市,あねとす病院,,深谷市人見1975,,36.162236,139.264527,,,,,,,,,,,,,,,
112186,深谷市,磯部クリニック,,深谷市新井926,,36.2169678,139.3123909,,,,,,,,,,,,,,,
112186,深谷市,おおしまクリニック,,深谷市上柴西６丁目19-10,,36.178565,139.2899027,,,,,,,,,,,,,,,
112186,深谷市,上柴クリニック,,深谷市上野台2321-2,,36.180662,139.2824698,,,,,,,,,,,,,,,
112186,深谷市,北深谷病院,,深谷市江原350,,36.22415286,139.3265478,,,,,,,,,,,,,,,
112186,深谷市,くろや整形外科医院,,深谷市田中2643-8,,36.15383989,139.2803241,,,,,,,,,,,,,,,
112186,深谷市,こくさいじクリニック,,深谷市国済寺347-1,,36.19205569,139.2972433,,,,,,,,,,,,,,,
112186,深谷市,彩花クリニック,,深谷市小前田2533-1,,36.13331919,139.2198549,,,,,,,,,,,,,,,
112186,深谷市,斉藤内科医院,,深谷市東大沼176,,36.202282,139.2778528,,,,,,,,,,,,,,,
112186,深谷市,上武内科クリニック,,深谷市本田ヶ谷210-2,,36.2096882,139.3315676,,,,,,,,,,,,,,,
112186,深谷市,須藤医院,,深谷市小前田2799-1,,36.13631631,139.2299235,,,,,,,,,,,,,,,
112186,深谷市,高田医院,,深谷市原郷4-14,,36.195916,139.291935,,,,,,,,,,,,,,,
112186,深谷市,樋口医院,,深谷市本郷78,,36.181472,139.219263,,,,,,,,,,,,,,,
112186,深谷市,福島医院,,深谷市上野台2778-1,,36.181512,139.276928,,,,,,,,,,,,,,,
112186,深谷市,プラーナクリニック,,深谷市柏合144-2,,36.18052,139.269346,,,,,,,,,,,,,,,
112186,深谷市,益岡医院,,深谷市岡部1243,,36.202809,139.250835,,,,,,,,,,,,,,,
112186,深谷市,みやはらクリニック,,深谷市田中2113,,36.149443,139.275733,,,,,,,,,,,,,,,
112186,深谷市,矢部耳鼻咽喉科,,深谷市上柴町東４丁目13-6,,36.182212,139.30177,,,,,,,,,,,,,,,
112186,深谷市,楽仙堂病院,,深谷市東方2100,,36.194062,139.310823,,,,,,,,,,,,,,,
112186,深谷市,白倉クリニック,,深谷市仲町7-5,,36.19593,139.282914,,,,,,,,,,,,,,,
112186,深谷市,埼玉ガス株式会社,,深谷市伊勢方395-1,,36.19695043,139.2567405,,,,,,,,,,,,,,,
112186,深谷市,深谷駅市民サービスセンター,ﾌｶﾔｴｷｼﾐﾝｻｰﾋﾞｽｾﾝﾀｰ,深谷市西島町３丁目1-8,048-574-6333,36.19139,139.2809,市民サービスセンター内文書キャビネット上に設置,,9:00～17:00施設利用者がいる場合は最長20:00まで利用可施設内巡回時および昼休み12:00～13:00は職員不在のため利用不可,月～日曜日,9:00:00,17:00:00,年末年始（12月29から1月3日）は施設休業のため利用不可,有り,https://fukaya.geocloud.jp/webgis/Link/org/12-19/0/ATTACH/23259ad1-d0e1-4d1e-9554-2432e5c56321.JPG,CC-BY,AED設置場所を深谷駅市民サービスセンター出入口から撮影,,,,
112186,深谷市,旧渋沢邸「中の家」,ｷｭｳｼﾌﾞｻﾜﾃｲ「ﾅｶﾝﾁ」,深谷市血洗島247－1,048-587-1100,36.23384,139.25562,主屋土間正面奥の上り口収納箱内に設置,,9:00～17:00,12/29～1/3を除く毎日,9:00:00,17:00:00,古い建物を公開しているため、豪雨や台風等により、見学者に危険が及ぶと判断された際には臨時休館する場合あり。連絡先の電話番号は渋沢栄一記念館を記載。,有り,https://fukaya.geocloud.jp/webgis/Link/org/12-19/0/ATTACH/11f38cf2-fe3c-4403-a0e7-d6271b5d7f30.JPG,CC-BY,主屋土間正面奥の上り口（あがりぐち）を撮影したもの,,,,
112186,深谷市,上柴コミュニティセンター,ｶﾐｼﾊﾞｺﾐｭﾆﾃｨｾﾝﾀｰ,東方4284－1,048-575-1679,36.17762,139.31641,多目的ホール,,9:00～22:00,毎日,9:00:00,22:00:00,年末年始は休館,有り,https://fukaya.geocloud.jp/webgis/Link/org/12-19/0/ATTACH/b043716d-905c-423e-af90-39020ee4c546.JPG,CC-BY,館内に入って右手方向を撮影した写真,,,,
112186,深谷市,くれよんかん,ｸﾚﾖﾝｶﾝ,萱場14－9,048-573-5770,36.19572,139.26652,事務室,,9:00～22:00,毎日,9:00:00,22:00:00,年末年始は休館,有り,https://fukaya.geocloud.jp/webgis/Link/org/12-19/0/ATTACH/d114e109-35d8-49cc-ac7f-4a11d1078ec1.JPG,CC-BY,館内に入って事務室を撮影した写真,,,,
112186,深谷市,深谷市立川本図書館,ﾌｶﾔｼﾘﾂｶﾜﾓﾄﾄｼｮｶﾝ,深谷市菅沼1146-1,048-583-6250,36.1367,139.28516,カウンター内,,10:00～19:00,火～日曜日,10:00:00,19:00:00,月曜休館,有り,https://fukaya.geocloud.jp/webgis/Link/org/12-19/0/ATTACH/2f1b6b0f-b3ac-492b-a42d-5777ac84e0bc.JPG,CC-BY,館内に入ってカウンター内を撮影した写真,,,,
112186,深谷市,深谷市立花園こども情報交流図書館アクロス,ﾌｶﾔｼﾘﾂﾊﾅｿﾞﾉｺﾄﾞﾓｼﾞｮｳﾎｳｺｳﾘｭｳﾄｼｮｶﾝｱｸﾛｽ,深谷市小前田1463-2,048-579-1333,36.12858,139.2314,カウンター内,,10:00～19:00,火～日曜日,10:00:00,19:00:00,月曜休館,有り,https://fukaya.geocloud.jp/webgis/Link/org/12-19/0/ATTACH/216b54e8-cc77-46a0-809b-0907070f063e.JPG,CC-BY,館内に入ってカウンター内を撮影した写真,,,,
112186,深谷市,深谷市花植木公設地方卸売市場,ﾌｶﾔｼﾊﾅｳｴｷｺｳｾﾂﾁﾎｳｵﾛｼｳﾘｲﾁﾊﾞ,深谷市櫛引22,048-572-1226,36.1568,139.23504,一階事務室窓口内,,8:30～17:00,年末年始以外,8:30:00,17:00:00,12月30日～1月3日まで休館,有り,https://fukaya.geocloud.jp/webgis/Link/org/12-19/0/ATTACH/64f3857d-f98c-433e-a7b0-ce17230710f3.JPG,CC-BY,事務所入り口から撮影。,,,,
112186,深谷市,川本農業者トレーニングセンター,ｶﾜﾓﾄﾉｳｷﾞｮｳｼｬﾄﾚｰﾆﾝｸﾞｾﾝﾀｰ,深谷市畠山1577,048-583-4781,36.12978,139.27829,一階事務室窓口前,,9:00～22:00,年末年始以外,9:00:00,22:00:00,12月29日～1月3日まで休館,有り,https://fukaya.geocloud.jp/webgis/Link/org/12-19/0/ATTACH/8d41d0b9-58f6-4258-8f25-a1f72ad2bc95.JPG,CC-BY,川本トレセン玄関から撮影,,,,
112186,深谷市,花園農業者トレーニングセンター,ﾊﾅｿﾞﾉﾉｳｷﾞｮｳｼｬﾄﾚｰﾆﾝｸﾞｾﾝﾀｰ,深谷市小前田2299,048-584-3910,36.1366,139.22774,一階事務室内,,9:00～22:00,年末年始以外,9:00:00,22:00:00,12月29日～1月3日まで休館,有り,https://fukaya.geocloud.jp/webgis/Link/org/12-19/0/ATTACH/3e9c39a9-a498-4a22-a53e-2ed7c486bb34.JPG,CC-BY,花園トレセン玄関から撮影,,,,
112186,深谷市,岡部浄水場　水道庁舎,ｵｶﾍﾞｼﾞｮｳｽｲｼﾞｮｳ　ｽｲﾄﾞｳﾁｮｳｼｬ,深谷市岡部1086,048-577-7527,36.19911,139.25021,１階トイレ前,,8：30～17：15,月～金曜日,8:30:00,17:15:00,土・日・祝・年末年始は休館,無し,https://fukaya.geocloud.jp/webgis/Link/org/12-19/0/ATTACH/bb8e0c49-bb66-4a42-9de3-3b8044942915.JPG,CC-BY,岡部浄水場内の水道庁舎入り口からＡＥＤが設置されている1階トイレ前を撮った写真,,,,
112186,深谷市,仙元山公園遊園地（わんぱくランド）,ｾﾝｹﾞﾝﾔﾏｺｳｴﾝﾕｳｴﾝﾁ（ﾜﾝﾊﾟｸﾗﾝﾄﾞ）,深谷市上野台2567,048-572-3000,36.1759,139.27401,事務所,,9:00～17:00※7・8月は9:00～18:00※11月～2月は9:00～16:00,休園日以外,9:00:00,17:00:00,休園日は毎月第２木曜日、１月１日～２日連絡先の電話番号は深谷市総合体育館内を記載。,有り,https://fukaya.geocloud.jp/webgis/Link/org/12-19/0/ATTACH/8ecc5630-1ecb-4b11-9a7f-f476998730c7.JPG,CC-BY,AED設置場所（事務室）をわんぱくランド1階管理棟入口から撮った写真,,,,
112186,深谷市,深谷市岡部総合支所,ﾌｶﾔｼｵｶﾍﾞｿｳｺﾞｳｼｼｮ,深谷市岡2381番地,048‐585‐2211,36.20431,139.23483,1階ホール北側の壁際(正面玄関を入り左壁際）,,8：30～17：15,月～金曜日,8:30:00,17:15:00,12月29日～1月3日、土・日・祝日は閉庁,有り,https://fukaya.geocloud.jp/webgis/Link/org/12-19/0/ATTACH/b579f55a-413e-4922-bf4e-532f880911d7.JPG,CC-BY,１階AED設置個所をホール中央付近から撮影,,,,
112186,深谷市,はたらふれあい館,ﾊﾀﾗﾌﾚｱｲｶﾝ,深谷市東方1710-1,048-575-0677,36.19434,139.31157,１階事務室,,8：30～22：00,年末年始以外,8:30:00,22:00:00,年末年始（12月29日～１月３日）は休館,有り,https://fukaya.geocloud.jp/webgis/Link/org/12-19/0/ATTACH/67e4c087-8010-4d6a-9413-0419f2f7ca09.JPG,CC-BY,AED設置場所を１階事務室から撮った写真,,,,
112186,深谷市,深谷市民体育館,ﾌｶﾔｼﾐﾝﾀｲｲｸｶﾝ,深谷市本住町17-1,048-572-9581,36.20045,139.28637,出入り口横　壁にボックスを設置,,9:00～22:00,日～土曜日,9:00:00,22:00:00,年末年始は休館連絡先の電話番号は生涯スポーツ振興課を記載。,有り,https://fukaya.geocloud.jp/webgis/Link/org/12-19/0/ATTACH/eff076f7-5261-4934-81a7-f5aba3c73b84.JPG,CC-BY,ＡＥＤ設置場所を市民体育館出入り口から撮った写真,,,,
112186,深谷市,道の駅はなぞの（花園地域物産館アルエット）,ﾐﾁﾉｴｷﾊﾅｿﾞﾉ（ﾊﾅｿﾞﾉﾁｲｷﾌﾞｯｻﾝｶﾝｱﾙｴｯﾄ）,深谷市小前田458-1,048-584-5225,36.12183,139.2273,アルエット事務室内,,9:00～19:00,通年で利用可,9:00:00,19:00:00,12月29日～31日は休館,有り,https://fukaya.geocloud.jp/webgis/Link/org/12-19/0/ATTACH/8871f522-fcd7-4a5b-816e-e91d4a9d6da7.JPG,CC-BY,ＡＥＤ設置場所を事務所入り口から撮った写真,,,,
112186,深谷市,深谷市消防本部　深谷消防署　藤沢分署,ﾌｶﾔｼｼｮｳﾎﾞｳﾎﾝﾌﾞ ﾌｶﾔｼｮｳﾎﾞｳｼｮ ﾌｼﾞｻﾜﾌﾞﾝｼｮ,深谷市人見986,048-572-5752,36.16711,139.27059,事務室内,,0:00～24:00,常時使用可能,0:00:00,0:00:00,常時使用可能　※但し出場中を除く,有り,https://fukaya.geocloud.jp/webgis/Link/org/12-19/0/ATTACH/d1fcfc58-2332-46de-8b37-57684656fe94.jpg,CC-BY,事務室内からAEDを中心に撮影した画像,,,,
112186,深谷市,深谷市消防本部　深谷消防署　豊里分署,ﾌｶﾔｼｼｮｳﾎﾞｳﾎﾝﾌﾞ ﾌｶﾔｼｮｳﾎﾞｳｼｮ ﾄﾖｻﾄﾌﾞﾝｼｮ,深谷市下手計176番地1,048-587-3291,36.23029,139.26769,受付内,,0:00～24:00,常時使用可能,0:00:00,0:00:00,常時使用可能　※但し出場中を除く,有り,https://fukaya.geocloud.jp/webgis/Link/org/12-19/0/ATTACH/b70d1253-dd33-448d-aab8-586bc519e4d0.jpg,CC-BY,１階受付室から撮影,,,,
112186,深谷市,深谷市消防本部　深谷消防署　岡部分署,ﾌｶﾔｼｼｮｳﾎﾞｳﾎﾝﾌﾞ ﾌｶﾔｼｮｳﾎﾞｳｼｮ ｵｶﾍﾞﾌﾞﾝｼｮ,深谷市岡2394-1,048-585-3950,36.20401,139.23413,１階事務室東側,,0:00～24:00,常時使用可能,0:00:00,0:00:00,常時使用可能　※但し出場中を除く,有り,https://fukaya.geocloud.jp/webgis/Link/org/12-19/0/ATTACH/8997b312-8ddf-4a9b-baae-4448fa89f9f3.JPG,CC-BY,AED設置場所を受付窓から撮った写真,,,,
112186,深谷市,深谷市消防本部　深谷消防署　上柴分署,ﾌｶﾔｼｼｮｳﾎﾞｳﾎﾝﾌﾞ ﾌｶﾔｼｮｳﾎﾞｳｼｮ ｶﾐｼﾊﾞﾌﾞﾝｼｮ,深谷市上柴町東3丁目1番地20,048-574-3311,36.17947,139.3066,玄関を入り正面の受付の棚,,0:00～24:00,常時使用可能,0:00:00,0:00:00,常時使用可能　※但し出場中を除く,有り,https://fukaya.geocloud.jp/webgis/Link/org/12-19/0/ATTACH/66ff077b-b95c-4620-90a6-7e321fc52f4a.JPG,CC-BY,AEDの設置場所を玄関から撮影,,,,
112186,深谷市,深谷市消防本部　花園消防署　,ﾌｶﾔｼｼｮｳﾎﾞｳﾎﾝﾌﾞ ﾊﾅｿﾞﾉｼｮｳﾎﾞｳｼｮ,深谷市小前田537,048-584-0119,36.12062,139.22862,1階 署事務室南東側,,0:00～24:00,常時使用可能,0:00:00,0:00:00,,有り,https://fukaya.geocloud.jp/webgis/Link/org/12-20/0/ATTACH/ad281bc1-3d2b-4c24-b1c1-3e1053569cc9.JPG,CC-BY,AED設置場所を署事務室入り口から撮った写真,,,,
112186,深谷市,深谷市消防本部　花園消防署　川本分署,ﾌｶﾔｼｼｮｳﾎﾞｳﾎﾝﾌﾞ ﾊﾅｿﾞﾉｼｮｳﾎﾞｳｼｮ ｶﾜﾓﾄﾌﾞﾝｼｮ,深谷市田中873-9,048-583-2795,36.13949,139.2735,１階受付、指令端末モニター隣,,0:00～24:00,常時使用可能,0:00:00,0:00:00,常時使用可能　※但し出場中を除く,有り,https://fukaya.geocloud.jp/webgis/Link/org/12-20/0/ATTACH/c6a09cd9-aa07-4f9f-a380-87c1f71b8ac7.JPG,CC-BY,AED設置場所を受付から撮った写真,,,,
112186,深谷市,深谷市消防本部　花園消防署　寄居分署,ﾌｶﾔｼｼｮｳﾎﾞｳﾎﾝﾌﾞ ﾊﾅｿﾞﾉｼｮｳﾎﾞｳｼｮ ﾖﾘｲﾌﾞﾝｼｮ,寄居町大字寄居983,048-581-0119,36.114794,139.194229,1階受付、南側の窓際,,0:00～24:00,常時使用可能,0:00:00,0:00:00,常時使用可能　※但し出場中を除く,有り,https://fukaya.geocloud.jp/webgis/Link/org/12-20/0/ATTACH/6b9fe660-0a55-46ac-92d3-0e8c19fbe264.JPG,CC-BY,ＡＥＤ設置場所を寄居分署１階受付の入口から撮った写真,,,,
112186,深谷市,明戸保育園,ｱｹﾄﾎｲｸｴﾝ,深谷市蓮沼260,048-573-2716,36.21601,139.31684,事務室入って左側（ベッド付き薬品棚）,,7:30～18:30,月～土曜日,7:30:00,18:30:00,日・祝・年末年始は休園,有り,https://fukaya.geocloud.jp/webgis/Link/org/12-20/0/ATTACH/ec5d2680-02df-4469-8d08-c29dcd1d7a21.JPG,CC-BY,ＡＥＤ設置場所を事務室内から、廊下からの出入口を含めて撮った写真,,,,
112186,深谷市,川本保育園,ｶﾜﾓﾄﾎｲｸｴﾝ,深谷市菅沼980,048-583-2202,36.13806,139.28515,事務所の薬品庫,,7:30～18:30,月～土曜日,7:30:00,18:30:00,日・祝・年末年始は休園,有り,https://fukaya.geocloud.jp/webgis/Link/org/12-20/0/ATTACH/1f1969ef-5c14-47fb-b6df-2311f05adf74.JPG,CC-BY,ＡＥＤ設置場所は事務室内の棚の中にあります。,,,,
112186,深谷市,川本南保育園,ｶﾜﾓﾄﾐﾅﾐﾎｲｸｴﾝ,深谷市本田4888,048-583-3196,36.12081,139.28449,職員室黒板横,,7:30～18:30,月～金曜日,7:30:00,18:30:00,土・日・祝・年末年始は休園,有り,https://fukaya.geocloud.jp/webgis/Link/org/12-20/0/ATTACH/ec50ef10-a3c0-4717-98d4-51f4ba244bb1.JPG,CC-BY,ＡＥＤ設置場所は事務室内の棚の上にあります。,,,,
112186,深谷市,第一深谷学童保育室,ﾀﾞｲｲﾁﾌｶﾔｶﾞｸﾄﾞｳﾎｲｸｼﾂ,深谷市仲町19-1,048-572-0504,36.19982,139.28276,事務室入って左側に設置してあるラックの上,,（平日）放課後～18:00（土、学校休業日）8:00～18:00,月～土曜日,,18:00:00,日、祝、年末年始は休室平日とその他（土、学校休業日）で利用可能時間は異なります。,無し,https://fukaya.geocloud.jp/webgis/Link/org/12-20/0/ATTACH/fc28351f-15e5-41a5-a1de-dd94cbee2073.JPG,CC-BY,ＡＥＤ設置場所を保育室から事務室方向に向けて撮った写真,,,,
112186,深谷市,第二深谷学童保育室,ﾀﾞｲﾆﾌｶﾔｶﾞｸﾄﾞｳﾎｲｸｼﾂ,深谷市仲町19-1,048-573-8011,36.20012,139.28357,保育室に設置してある棚の最上段,,（平日）放課後～18:00（土、学校休業日）8:00～18:00,月～土曜日,,18:00:00,日、祝、年末年始は休室平日とその他（土、学校休業日）で利用可能時間は異なります。,無し,https://fukaya.geocloud.jp/webgis/Link/org/12-20/0/ATTACH/b0e4595a-7846-4707-91c6-a4c1c8a20ddd.JPG,CC-BY,ＡＥＤ設置場所を保育室中央付近から西方向に向けて撮った写真,,,,
112186,深谷市,第一桜ケ丘学童保育室,ﾀﾞｲｲﾁｻｸﾗｶﾞｵｶｶﾞｸﾄﾞｳﾎｲｸｼﾂ,深谷市上野台508,048-573-4692,36.1859,139.27884,事務室入って左側奥に設置してある棚の中段,,（平日）放課後～18:00（土、学校休業日）8:00～18:00,月～土曜日,,18:00:00,日、祝、年末年始は休室平日とその他（土、学校休業日）で利用可能時間は異なります。,無し,https://fukaya.geocloud.jp/webgis/Link/org/12-20/0/ATTACH/09f33c50-ff85-4810-be0b-8cb09981f39d.JPG,CC-BY,ＡＥＤ設置場所を事務室出入り口付近から西方向に向けて撮った写真,,,,
112186,深谷市,第二桜ケ丘学童保育室,ﾀﾞｲﾆｻｸﾗｶﾞｵｶｶﾞｸﾄﾞｳﾎｲｸｼﾂ,深谷市上野台508,048-575-0339,36.18609,139.28071,事務室入って左側に設置してある棚の上段,,（平日）放課後～18:00（土、学校休業日）8:00～18:00,月～土曜日,,18:00:00,日、祝、年末年始は休室平日とその他（土、学校休業日）で利用可能時間は異なります。,無し,https://fukaya.geocloud.jp/webgis/Link/org/12-20/0/ATTACH/56dec12a-2704-490b-b899-173f7f8b46a3.JPG,CC-BY,ＡＥＤ設置場所を事務室から保育室方向に向けて撮った写真,,,,
112186,深谷市,第一幡羅学童保育室,ﾀﾞｲｲﾁﾊﾀﾗｶﾞｸﾄﾞｳﾎｲｸｼﾂ,深谷市東方町３丁目25-1,048-573-4964,36.18699,139.3178,出入り口入って左側に設置してある棚の下段,,（平日）放課後～18:00（土、学校休業日）8:00～18:00,月～土曜日,,18:00:00,日、祝、年末年始は休室平日とその他（土、学校休業日）で利用可能時間は異なります。,無し,https://fukaya.geocloud.jp/webgis/Link/org/12-20/0/ATTACH/04917087-54bd-4dc2-9613-3018aa4253a0.JPG,CC-BY,ＡＥＤ設置場所を保育室から出入り口方向に向けて撮った写真,,,,
112186,深谷市,第一常盤学童保育室,ﾀﾞｲｲﾁﾄｷﾜｶﾞｸﾄﾞｳﾎｲｸｼﾂ,深谷市常盤町58-2,048-574-4809,36.19459,139.29999,事務室に設置してある電話機の隣,,（平日）放課後～18:00（土、学校休業日）8:00～18:00,月～土曜日,,18:00:00,日、祝、年末年始は休室平日とその他（土、学校休業日）で利用可能時間は異なります。,無し,https://fukaya.geocloud.jp/webgis/Link/org/12-20/0/ATTACH/ef63d95e-9420-4a18-91bb-257cf0947274.JPG,CC-BY,ＡＥＤ設置場所を事務室出入り口付近から西方向に向けて撮った写真,,,,
112186,深谷市,明戸学童保育室,ｱｹﾄｶﾞｸﾄﾞｳﾎｲｸｼﾂ,深谷市蓮沼413,048-571-8806,36.21913,139.32088,保育室に設置してある用具棚の最上段,,（平日）放課後～18:00（土、学校休業日）8:00～18:00,月～土曜日,,18:00:00,日、祝、年末年始は休室平日とその他（土、学校休業日）で利用可能時間は異なります。,無し,https://fukaya.geocloud.jp/webgis/Link/org/12-20/0/ATTACH/d3b077bc-9c4f-4bba-8b65-79500391d1d0.JPG,CC-BY,ＡＥＤ設置場所を保育室中央付近から北方向に向けて撮った写真,,,,
112186,深谷市,大寄学童保育室,ｵｵﾖﾘｶﾞｸﾄﾞｳﾎｲｸｼﾂ,深谷市内ケ島660-4,048-574-6902,36.21701,139.27301,出入り口入って左側に設置してあるロッカーの上,,（平日）放課後～18:00（土、学校休業日）8:00～18:00,月～土曜日,,18:00:00,日、祝、年末年始は休室平日とその他（土、学校休業日）で利用可能時間は異なります。,無し,https://fukaya.geocloud.jp/webgis/Link/org/12-20/0/ATTACH/07586174-db9e-4715-bfcc-9208669131b3.JPG,CC-BY,ＡＥＤ設置場所を出入り口付近から北東方向に向けて撮った写真,,,,
112186,深谷市,八基学童保育室,ﾔﾂﾓﾄｶﾞｸﾄﾞｳﾎｲｸｼﾂ,深谷市下手計1300,048-587-3684,36.23388,139.26218,出入り口入って右側に設置してあるロッカーの最上段,,（平日）放課後～18:00（土、学校休業日）8:00～18:00,月～土曜日,,18:00:00,日、祝、年末年始は休室平日とその他（土、学校休業日）で利用可能時間は異なります。,無し,https://fukaya.geocloud.jp/webgis/Link/org/12-20/0/ATTACH/7414deb5-c451-4d70-b355-4d6a82351184.JPG,CC-BY,ＡＥＤ設置場所を保育室から出入り口方向に向けて撮った写真,,,,
112186,深谷市,豊里学童保育室,ﾄﾖｻﾄｶﾞｸﾄﾞｳﾎｲｸｼﾂ,深谷市新戒643-2,048-587-1533,36.23373,139.28541,事務スペース奥に設置してあるプリンタの隣,,（平日）放課後～18:00（土、学校休業日）8:00～18:00,月～土曜日,,18:00:00,日、祝、年末年始は休室平日とその他（土、学校休業日）で利用可能時間は異なります。,無し,https://fukaya.geocloud.jp/webgis/Link/org/12-20/0/ATTACH/d56d7363-ee30-4b5d-bcdc-d1ef5720e440.JPG,CC-BY,ＡＥＤ設置場所を保育室から事務スペース方向に向けて撮った写真,,,,
112186,深谷市,上柴西学童保育室,ｶﾐｼﾊﾞﾆｼｶﾞｸﾄﾞｳﾎｲｸｼﾂ,深谷市上柴町西５丁目11-1,048-575-3751,36.18162,139.29358,事務室入って左奥に設置されている棚の上,,（平日）放課後～18:00（土、学校休業日）8:00～18:00,月～土曜日,,18:00:00,日、祝、年末年始は休室平日とその他（土、学校休業日）で利用可能時間は異なります。,無し,https://fukaya.geocloud.jp/webgis/Link/org/12-20/0/ATTACH/bd94f462-75ab-4c80-abd4-bb665a950dcb.JPG,CC-BY,ＡＥＤ設置場所を事務室から西方向に向けて撮った写真,,,,
112186,深谷市,第一岡部学童保育室,ﾀﾞｲｲﾁｵｶﾍﾞｶﾞｸﾄﾞｳﾎｲｸｼﾂ,深谷市普済寺1340-1,048-585-3913,36.20727,139.24688,出入り口入って右側に設置してあるピアノの上,,（平日）放課後～18:00（土、学校休業日）8:00～18:00,月～土曜日,,18:00:00,日、祝、年末年始は休室平日とその他（土、学校休業日）で利用可能時間は異なります。,無し,https://fukaya.geocloud.jp/webgis/Link/org/12-20/0/ATTACH/81b38271-5f58-4d97-81ff-7c4bfe542db5.jpg,CC-BY,ＡＥＤ設置場所を保育室から出入り口方向に向けて撮った写真,,,,
112186,深谷市,榛沢学童保育室,ﾊﾝｻﾞﾜｶﾞｸﾄﾞｳﾎｲｸｼﾂ,深谷市榛沢802-1,048-585-3600,36.21249,139.21399,出入り口入って右側の事務スペースに設置してある棚の上,,（平日）放課後～18:00（土、学校休業日）8:00～18:00,月～土曜日,,18:00:00,日、祝、年末年始は休室平日とその他（土、学校休業日）で利用可能時間は異なります。,無し,https://fukaya.geocloud.jp/webgis/Link/org/12-20/0/ATTACH/63d854a5-39fd-43b5-9daf-67fa88e00e04.JPG,CC-BY,ＡＥＤ設置場所を保育室から事務スペース方向に向けて撮った写真,,,,
112186,深谷市,本郷学童保育室,ﾎﾝｺﾞｳｶﾞｸﾄﾞｳﾎｲｸｼﾂ,深谷市針ヶ谷506,048-585-3064,36.17471,139.22522,風除室に設置してある靴箱の上,,（平日）放課後～18:00（土、学校休業日）8:00～18:00,月～土曜日,,18:00:00,日、祝、年末年始は休室平日とその他（土、学校休業日）で利用可能時間は異なります。,無し,https://fukaya.geocloud.jp/webgis/Link/org/12-20/0/ATTACH/af0a8c87-7da2-464a-bda0-b153832cfb27.JPG,CC-BY,ＡＥＤ設置場所を保育室から風除室方向に向けて撮った写真,,,,
112186,深谷市,第一岡部西学童保育室,ﾀﾞｲｲﾁｵｶﾍﾞﾆｼｶﾞｸﾄﾞｳﾎｲｸｼﾂ,深谷市岡2016-1,048-585-5331,36.21289,139.23321,出入り口入って左側に設置してあるロッカー最上段,,（平日）放課後～18:00（土、学校休業日）8:00～18:00,月～土曜日,,18:00:00,日、祝、年末年始は休室平日とその他（土、学校休業日）で利用可能時間は異なります。,無し,https://fukaya.geocloud.jp/webgis/Link/org/12-20/0/ATTACH/33e53390-2ad3-4436-8107-2b709e54838e.JPG,CC-BY,ＡＥＤ設置場所を出入り口付近から保育室方向に向けて撮った写真,,,,
112186,深谷市,川本北学童保育室,ｶﾜﾓﾄｷﾀｶﾞｸﾄﾞｳﾎｲｸｼﾂ,深谷市菅沼147,048-583-2076,36.144,139.28721,事務室入って右奥に設置してある棚の中段,,（平日）放課後～18:00（土、学校休業日）8:00～18:00,月～土曜日,,18:00:00,日、祝、年末年始は休室平日とその他（土、学校休業日）で利用可能時間は異なります。,無し,https://fukaya.geocloud.jp/webgis/Link/org/12-20/0/ATTACH/2430fbb7-d974-48a4-94dc-b14f74736436.JPG,CC-BY,ＡＥＤ設置場所を事務室から東方向に向けて撮った写真,,,,
112186,深谷市,ふたば保育園,ﾌﾀﾊﾞﾎｲｸｴﾝ,深谷市北根391,048-584-6652,36.141,139.249,,,（平日）7:30～19:00（土）7:30～12:30,月～土曜日,7:30:00,19:00:00,,有り,,,,,,,
112186,深谷市,川本南学童保育室,ｶﾜﾓﾄﾐﾅﾐｶﾞｸﾄﾞｳﾎｲｸｼﾂ,深谷市本田4888,048-583-7790,36.121,139.285,保育室に設置してある下駄箱の上段,,（平日）放課後～18:00（土、学校休業日）8:00～18:00,月～土曜日,,18:00:00,日、祝、年末年始は休室平日とその他（土、学校休業日）で利用可能時間は異なります。,無し,,,ＡＥＤ設置場所を保育室から東方向に向けて撮った写真,,,,
112186,深谷市,上柴東学童保育室,ｶﾐｼﾊﾞﾋｶﾞｼｶﾞｸﾄﾞｳﾎｲｸｼﾂ,深谷市上柴町東5-9-1,048-571-7772,36.178,139.302,保育室のテラスの出入り口に設置してあるロッカーの上段,,（平日）放課後～18:00（土、学校休業日）8:00～18:00,月～土曜日,,18:00:00,日、祝、年末年始は休室平日とその他（土、学校休業日）で利用可能時間は異なります。,無し,,,ＡＥＤ設置場所を保育室からテラスへ向けて撮った写真,,,,
112186,深谷市,深谷西学童保育室,ﾌｶﾔﾆｼｶﾞｸﾄﾞｳﾎｲｸｼﾂ,深谷市栄町14-19,048-571-1770,36.197,139.273,保育室に設置してあるロッカーの上段,,（平日）放課後～18:00（土、学校休業日）8:00～18:00,月～土曜日,,18:00:00,日、祝、年末年始は休室平日とその他（土、学校休業日）で利用可能時間は異なります。,無し,,,ＡＥＤ設置場所を保育室から東方向に向けて撮った写真,,,,
112186,深谷市,深谷市民文化会館,ﾌｶﾔｼﾐﾝﾌﾞﾝｶｶｲｶﾝ,深谷市本住町17-1,048-573-8765,36.199,139.287,事務所内キャビネット上,,9:00～21:30,12月29日～1月3日を除く全日,9:00:00,21:30:00,臨時休館等もありえます。,有り,,,ＡＥＤ設置場所を文化会館事務所入口側から撮影した写真,,,,
112186,深谷市,深谷寄居医師会休日診療所こども夜間診療所,ﾌｶﾔﾖﾘｲｲｼｶｲｷｭｳｼﾞﾂｼﾝﾘｮｳｼﾞｮｺﾄﾞﾓﾔｶﾝｼﾝﾘｮｳｼﾞｮ,深谷市国済寺319-3,048-573-7724,36.19042,139.29504,,,,,,,,,,,,,,,
112186,深谷市,道の駅　かわもと,ﾐﾁﾉｴｷ ｶﾜﾓﾄ,深谷市長在家1279-2,048-583-3369,36.15147,139.28918,物産館事務所内,,9:00～17:00,日～土曜日,9:00:00,17:00:00,年末年始は休館,有り,,,,,,,
112186,深谷市,秩父鉄道　明戸駅,ﾁﾁﾌﾞﾃﾂﾄﾞｳ ｱｹﾄｴｷ,深谷市瀬山578-3,048-583-6265,36.14296,139.30372,,,,,,,,,,,,,,,
112186,深谷市,秩父鉄道　武川駅,ﾁﾁﾌﾞﾃﾂﾄﾞｳ ﾀｹｶﾜｴｷ,深谷市田中100-4,048-583-2788,36.14206,139.28256,,,,,,,,,,,,,,,
112186,深谷市,秩父鉄道　永田駅,ﾁﾁﾌﾞﾃﾂﾄﾞｳﾅｶﾞﾀｴｷ,深谷市永田155-4,048-584-2330,36.13507,139.25911,,,,,,,,,,,,,,,
112186,深谷市,秩父鉄道　小前田駅,ﾁﾁﾌﾞﾃﾂﾄﾞｳ ｵﾏｴﾀﾞｴｷ,深谷市小前田1680-1,048-584-1216,36.12877,139.2224,,,,,,,,,,,,,,,
112186,深谷市,豊里保育園,ﾄﾖｻﾄﾎｲｸｴﾝ,深谷市新戒640-3,048-587-3786,36.23419,139.28561,,,,,,,,,,,,,,,
